[Satellite]
VERSION=1.1
NAME=MOLNIYA 1-56
NICKNAME=MOLNIYA 1-56
TLE1=1 13890U 83019A   19314.72290733  .00001513  00000-0  00000+0 0  9992
TLE2=2 13890  63.2477 152.4897 7011186 260.6322  19.8820  1.99895233267623
STATUS=0
